NORAD_CAT_ID,OBJECT_NAME,OBJECT_TYPE,EPOCH,MEAN_MOTION,ECCENTRICITY,INCLINATION,RA_OF_ASC_NODE,ARG_OF_PERICENTER,MEAN_ANOMALY,BSTAR,MEAN_MOTION_DOT,MEAN_MOTION_DDOT,TLE_LINE0,TLE_LINE1,TLE_LINE2,SEMIMAJOR_AXIS,PERIOD,APOGEE,PERIGEE,DECAYED
53020.0,STARLINK-4287,PAYLOAD,2024-07-06 13:25:32,15.08836843,0.0001375,53.2182,307.5958,97.9751,262.1398,3.0561e-05,1.98e-06,0.0,0 STARLINK-4287,1 53020U 22076AL  24188.55940935  .00000198  00000-0  30561-4 0  9997,2 53020  53.2182 307.5958 0001375  97.9751 262.1398 15.08836843111194,6917.89,95.438,540.706,538.804,0.0
53020.0,STARLINK-4287,PAYLOAD,2024-07-06 15:00:55,15.08838592,0.0001277,53.2177,307.2991,97.4102,262.7035,4.2962e-05,3.96e-06,0.0,0 STARLINK-4287,1 53020U 22076AL  24188.62564793  .00000396  00000-0  42962-4 0  9997,2 53020  53.2177 307.2991 0001277  97.4102 262.7035 15.08838592110734,6917.885,95.438,540.633,538.866,0.0
53020.0,STARLINK-4287,PAYLOAD,2024-07-07 06:54:47,15.08841858,0.0001197,53.2167,304.3265,109.0809,251.0313,-5.8459e-05,-1.218e-05,0.0,0 STARLINK-4287,1 53020U 22076AL  24189.28805045 -.00001218  00000-0 -58459-4 0  9992,2 53020  53.2167 304.3265 0001197 109.0809 251.0313 15.08841858110830,6917.875,95.437,540.568,538.912,0.0
53020.0,STARLINK-4287,PAYLOAD,2024-07-08 13:07:08,15.08824632,0.0001232,53.217,298.6762,89.7109,270.4024,-2.9898e-05,-7.63e-06,0.0,0 STARLINK-4287,1 53020U 22076AL  24190.54662815 -.00000763  00000-0 -29898-4 0  9998,2 53020  53.2170 298.6762 0001232  89.7109 270.4024 15.08824632111496,6917.927,95.439,540.645,538.94,0.0
53020.0,STARLINK-4287,PAYLOAD,2024-07-08 14:42:31,15.08824577,0.0001218,53.2168,298.3791,85.1326,274.9805,-2.7243e-05,-7.21e-06,0.0,0 STARLINK-4287,1 53020U 22076AL  24190.61286892 -.00000721  00000-0 -27243-4 0  9999,2 53020  53.2168 298.3791 0001218  85.1326 274.9805 15.08824577111031,6917.928,95.439,540.635,538.95,0.0
53020.0,STARLINK-4287,PAYLOAD,2024-07-09 00:14:50,15.08833998,0.0001267,53.217,296.5945,92.0713,268.0424,5.9181e-05,6.54e-06,0.0,0 STARLINK-4287,1 53020U 22076AL  24191.01030285  .00000654  00000-0  59181-4 0  9996,2 53020  53.2170 296.5945 0001267  92.0713 268.0424 15.08833998111562,6917.899,95.438,540.64,538.887,0.0
53020.0,STARLINK-4287,PAYLOAD,2024-07-09 12:57:53,15.08853229,0.0001091,53.2166,294.2119,92.2566,267.8551,0.00015336,2.155e-05,0.0,0 STARLINK-4287,1 53020U 22076AL  24191.54020761  .00002155  00000-0  15336-3 0  9993,2 53020  53.2166 294.2119 0001091  92.2566 267.8551 15.08853229111644,6917.84,95.437,540.46,538.95,0.0
53020.0,STARLINK-4287,PAYLOAD,2024-07-09 14:33:16,15.08854293,0.0001194,53.2167,293.9154,98.0009,262.1118,0.00020982,3.054e-05,0.0,0 STARLINK-4287,1 53020U 22076AL  24191.60644559  .00003054  00000-0  20982-3 0  9999,2 53020  53.2167 293.9154 0001194  98.0009 262.1118 15.08854293111188,6917.837,95.437,540.528,538.876,0.0
53020.0,STARLINK-4287,PAYLOAD,2024-07-10 00:05:36,15.08843342,0.0001114,53.218,292.1299,104.4231,255.6885,0.00024755,3.654e-05,0.0,0 STARLINK-4287,1 53020U 22076AL  24192.00389140  .00003654  00000-0  24755-3 0  9994,2 53020  53.2180 292.1299 0001114 104.4231 255.6885 15.08843342111715,6917.87,95.437,540.506,538.965,0.0
53020.0,STARLINK-4287,PAYLOAD,2024-07-10 12:48:41,15.08840702,0.0001076,53.218,289.7496,93.9018,266.2097,0.00016422,2.327e-05,0.0,0 STARLINK-4287,1 53020U 22076AL  24192.53381411  .00002327  00000-0  16422-3 0  9993,2 53020  53.2180 289.7496 0001076  93.9018 266.2097 15.08840702111325,6917.878,95.438,540.488,538.999,0.0
53020.0,STARLINK-4287,PAYLOAD,2024-07-11 12:39:28,15.08842941,0.0001125,53.2176,285.2908,89.1277,270.9844,-0.00019758,-3.431e-05,0.0,0 STARLINK-4287,1 53020U 22076AL  24193.52741265 -.00003431  00000-0 -19758-3 0  9994,2 53020  53.2176 285.2908 0001125  89.1277 270.9844 15.08842941111473,6917.871,95.437,540.515,538.958,0.0
53020.0,STARLINK-4287,PAYLOAD,2024-07-12 12:30:15,15.0883933,0.0001228,53.2175,280.832,98.4466,261.6666,-6.011e-06,-3.84e-06,0.0,0 STARLINK-4287,1 53020U 22076AL  24194.52101113 -.00000384  00000-0 -60110-5 0  9991,2 53020  53.2175 280.8320 0001228  98.4466 261.6666 15.08839330111622,6917.882,95.438,540.597,538.898,0.0
53020.0,STARLINK-4287,PAYLOAD,2024-07-13 12:21:02,15.08840203,0.0001318,53.2163,276.3721,89.4849,270.6294,0.00035694,5.397e-05,0.0,0 STARLINK-4287,1 53020U 22076AL  24195.51461266  .00005397  00000-0  35694-3 0  9993,2 53020  53.2163 276.3721 0001318  89.4849 270.6294 15.08840203112246,6917.88,95.438,540.657,538.833,0.0
53020.0,STARLINK-4287,PAYLOAD,2024-07-13 21:53:21,15.08838504,0.00013,53.2158,274.5879,87.9203,272.1938,0.00026539,3.938e-05,0.0,0 STARLINK-4287,1 53020U 22076AL  24195.91205528  .00003938  00000-0  26539-3 0  9991,2 53020  53.2158 274.5879 0001300  87.9203 272.1938 15.08838504111839,6917.885,95.438,540.649,538.851,0.0
53020.0,STARLINK-4287,PAYLOAD,2024-07-14 04:14:54,15.08838202,0.0001367,53.2163,273.3992,89.7607,270.3542,0.0001509,2.114e-05,0.0,0 STARLINK-4287,1 53020U 22076AL  24196.17701589  .00002114  00000-0  15090-3 0  9993,2 53020  53.2163 273.3992 0001367  89.7607 270.3542 15.08838202112342,6917.886,95.438,540.697,538.805,0.0
53020.0,STARLINK-4287,PAYLOAD,2024-07-14 12:11:49,15.08846253,0.0001338,53.2166,271.9128,96.4444,263.6701,0.00023409,3.44e-05,0.0,0 STARLINK-4287,1 53020U 22076AL  24196.50821180  .00003440  00000-0  23409-3 0  9996,2 53020  53.2166 271.9128 0001338  96.4444 263.6701 15.08846253111922,6917.861,95.437,540.652,538.801,0.0
53020.0,STARLINK-4287,PAYLOAD,2024-07-15 05:41:04,15.08833047,0.0001125,53.2149,268.6376,77.9089,282.2029,-0.00015185,-2.703e-05,0.0,0 STARLINK-4287,1 53020U 22076AL  24197.23685466 -.00002703  00000-0 -15185-3 0  9997,2 53020  53.2149 268.6376 0001125  77.9089 282.2029 15.08833047112506,6917.902,95.438,540.545,538.988,0.0
53020.0,STARLINK-4287,PAYLOAD,2024-07-15 12:02:36,15.08845637,0.0001165,53.2145,267.4493,80.8692,279.2432,0.00013491,1.86e-05,0.0,0 STARLINK-4287,1 53020U 22076AL  24197.50181096  .00001860  00000-0  13491-3 0  9996,2 53020  53.2145 267.4493 0001165  80.8692 279.2432 15.08845637112542,6917.863,95.437,540.534,538.922,0.0
53020.0,STARLINK-4287,PAYLOAD,2024-07-15 21:34:55,15.08839845,0.0001154,53.2147,265.667,92.7026,267.4098,5.0447e-05,5.15e-06,0.0,0 STARLINK-4287,1 53020U 22076AL  24197.89925291  .00000515  00000-0  50447-4 0  9990,2 53020  53.2147 265.6670 0001154  92.7026 267.4098 15.08839845112138,6917.881,95.438,540.544,538.948,0.0
53020.0,STARLINK-4287,PAYLOAD,2024-07-16 11:53:23,15.08842349,0.000163,53.216,262.9886,91.5971,268.5208,0.00011464,1.537e-05,0.0,0 STARLINK-4287,1 53020U 22076AL  24198.49541420  .00001537  00000-0  11464-3 0  9995,2 53020  53.2160 262.9886 0001630  91.5971 268.5208 15.08842349112225,6917.873,95.437,540.866,538.611,0.0
53020.0,STARLINK-4287,PAYLOAD,2024-07-17 03:47:15,15.08835072,0.0001361,53.2163,260.0171,92.8868,267.228,8.1155e-05,1.004e-05,0.0,0 STARLINK-4287,1 53020U 22076AL  24199.15781865  .00001004  00000-0  81155-4 0  9992,2 53020  53.2163 260.0171 0001361  92.8868 267.2280 15.08835072112797,6917.895,95.438,540.702,538.819,0.0
53020.0,STARLINK-4287,PAYLOAD,2024-07-17 11:44:11,15.08835085,0.0001373,53.2158,258.5286,83.2191,276.8957,7.164e-05,8.52e-06,0.0,0 STARLINK-4287,1 53020U 22076AL  24199.48902156  .00000852  00000-0  71640-4 0  9994,2 53020  53.2158 258.5286 0001373  83.2191 276.8957 15.08835085112371,6917.895,95.438,540.71,538.811,0.0
53020.0,STARLINK-4287,PAYLOAD,2024-07-18 09:59:35,15.0884229,0.0001355,53.216,254.3664,85.6463,274.4684,0.00021279,3.1e-05,0.0,0 STARLINK-4287,1 53020U 22076AL  24200.41638374  .00003100  00000-0  21279-3 0  9999,2 53020  53.2160 254.3664 0001355  85.6463 274.4684 15.08842290112980,6917.873,95.437,540.676,538.801,0.0
53020.0,STARLINK-4287,PAYLOAD,2024-07-19 09:50:22,15.08849856,0.0001448,53.2157,249.9065,85.0654,275.0504,0.00037829,5.739e-05,0.0,0 STARLINK-4287,1 53020U 22076AL  24201.40998275  .00005739  00000-0  37829-3 0  9996,2 53020  53.2157 249.9065 0001448  85.0654 275.0504 15.08849856112668,6917.85,95.437,540.717,538.714,0.0
53020.0,STARLINK-4287,PAYLOAD,2024-07-20 09:41:09,15.08841042,0.0001579,53.216,245.4449,93.4153,266.702,1.8397e-05,5e-08,0.0,0 STARLINK-4287,1 53020U 22076AL  24202.40358367  .00000005  00000-0  18397-4 0  9990,2 53020  53.2160 245.4449 0001579  93.4153 266.7020 15.08841042113289,6917.877,95.437,540.835,538.65,0.0
53020.0,STARLINK-4287,PAYLOAD,2024-07-21 09:31:56,15.0884205,0.0001446,53.2161,240.9828,95.7786,264.3371,3.5921e-05,2.84e-06,0.0,0 STARLINK-4287,1 53020U 22076AL  24203.39718246  .00000284  00000-0  35921-4 0  9996,2 53020  53.2161 240.9828 0001446  95.7786 264.3371 15.08842050112968,6917.874,95.437,540.739,538.739,0.0
53020.0,STARLINK-4287,PAYLOAD,2024-07-22 01:25:47,15.08839779,0.0001572,53.2165,238.0132,114.7226,245.393,8.9759e-05,1.141e-05,0.0,0 STARLINK-4287,1 53020U 22076AL  24204.05958236  .00001141  00000-0  89759-4 0  9996,2 53020  53.2165 238.0132 0001572 114.7226 245.3930 15.08839779113537,6917.881,95.438,540.834,538.659,0.0
53020.0,STARLINK-4287,PAYLOAD,2024-07-22 07:47:20,15.08836328,0.0001494,53.2162,236.8203,110.0184,250.0969,5.6178e-05,6.06e-06,0.0,0 STARLINK-4287,1 53020U 22076AL  24204.32454592  .00000606  00000-0  56178-4 0  9996,2 53020  53.2162 236.8203 0001494 110.0184 250.0969 15.08836328113109,6917.892,95.438,540.79,538.723,0.0
53020.0,STARLINK-4287,PAYLOAD,2024-07-23 10:48:53,15.08846719,0.0001284,53.2157,231.765,87.914,272.1999,0.00010839,1.438e-05,0.0,0 STARLINK-4287,1 53020U 22076AL  24205.45061993  .00001438  00000-0  10839-3 0  9997,2 53020  53.2157 231.7650 0001284  87.9140 272.1999 15.08846719113747,6917.86,95.437,540.613,538.837,0.0
53020.0,STARLINK-4287,PAYLOAD,2024-07-24 05:53:32,15.08832281,0.0001441,53.2161,228.1955,101.1788,258.9366,1.1476e-05,-1.05e-06,0.0,0 STARLINK-4287,1 53020U 22076AL  24206.24551312 -.00000105  00000-0  11476-4 0  9994,2 53020  53.2161 228.1955 0001441 101.1788 258.9366 15.08832281113864,6917.904,95.438,540.766,538.772,0.0
